start=new Date('2022-07-13T00:00:00.000Z').valueOf();
sats=[{"NORAD_CAT_ID":"50839","OBJECT_ID":"2022-001AN","TIME_SYSTEM":"UTC","BSTAR":"0.00107480000000","RCS_SIZE":"LARGE","MEAN_MOTION_DDOT":"0.0000000000000","REF_FRAME":"TEME","COUNTRY_CODE":"US","MEAN_ANOMALY":"281.7916","PERIOD":"95.435","SITE":"AFETR","ARG_OF_PERICENTER":"78.3309","LAUNCH_DATE":"2022-01-06","SEMIMAJOR_AXIS":"6917.765","CLASSIFICATION_TYPE":"U","TLE_LINE2":"2 50839  53.2178  55.7690 0002078  78.3309 281.7916 15.08877691 28592","MEAN_MOTION_DOT":"0.00016877","ECCENTRICITY":"0.00020780","RA_OF_ASC_NODE":"55.7690","ELEMENT_SET_NO":"999","MEAN_MOTION":"15.08877691","PERIAPSIS":"538.193","EPOCH":"2022-07-12T21:16:00.405120","TLE_LINE1":"1 50839U 22001AN  22193.88611580  .00016877  00000-0  10748-2 0  9995","OBJECT_TYPE":"PAYLOAD","EPHEMERIS_TYPE":"0","MEAN_ELEMENT_THEORY":"SGP4","FILE":"3512432","OBJECT_NAME":"STARLINK-3320","GP_ID":"208000935","DECAY_DATE":null,"REV_AT_EPOCH":"2859","APOAPSIS":"541.068","INCLINATION":"53.2178","CENTER_NAME":"EARTH"},{"REV_AT_EPOCH":"2859","DECAY_DATE":null,"APOAPSIS":"541.066","GP_ID":"208000199","CENTER_NAME":"EARTH","INCLINATION":"53.2170","PERIAPSIS":"538.315","EPHEMERIS_TYPE":"0","TLE_LINE1":"1 50840U 22001AP  22193.88243661  .00006167  00000-0  40506-3 0  9995","OBJECT_TYPE":"PAYLOAD","EPOCH":"2022-07-12T21:10:42.523104","ELEMENT_SET_NO":"999","MEAN_MOTION":"15.08857996","FILE":"3512432","OBJECT_NAME":"STARLINK-3295","MEAN_ELEMENT_THEORY":"SGP4","MEAN_ANOMALY":"288.2401","COUNTRY_CODE":"US","ARG_OF_PERICENTER":"71.8808","SITE":"AFETR","PERIOD":"95.436","MEAN_MOTION_DDOT":"0.0000000000000","REF_FRAME":"TEME","ECCENTRICITY":"0.00019880","MEAN_MOTION_DOT":"0.00006167","RA_OF_ASC_NODE":"55.7812","LAUNCH_DATE":"2022-01-06","TLE_LINE2":"2 50840  53.2170  55.7812 0001988  71.8808 288.2401 15.08857996 28590","CLASSIFICATION_TYPE":"U","SEMIMAJOR_AXIS":"6917.825","OBJECT_ID":"2022-001AP","NORAD_CAT_ID":"50840","RCS_SIZE":"LARGE","TIME_SYSTEM":"UTC","BSTAR":"0.00040506000000"},{"TIME_SYSTEM":"UTC","BSTAR":"0.00064297000000","RCS_SIZE":"LARGE","NORAD_CAT_ID":"50841","OBJECT_ID":"2022-001AQ","LAUNCH_DATE":"2022-01-06","CLASSIFICATION_TYPE":"U","SEMIMAJOR_AXIS":"6917.794","TLE_LINE2":"2 50841  53.2180  56.0339 0002049  63.9313 296.1890 15.08868408 28592","MEAN_MOTION_DOT":"0.00009968","ECCENTRICITY":"0.00020490","RA_OF_ASC_NODE":"56.0339","REF_FRAME":"TEME","MEAN_MOTION_DDOT":"0.0000000000000","COUNTRY_CODE":"US","MEAN_ANOMALY":"296.1890","PERIOD":"95.436","ARG_OF_PERICENTER":"63.9313","SITE":"AFETR","MEAN_ELEMENT_THEORY":"SGP4","OBJECT_NAME":"STARLINK-3300","FILE":"3512432","ELEMENT_SET_NO":"999","MEAN_MOTION":"15.08868408","PERIAPSIS":"538.241","EPOCH":"2022-07-12T19:51:12.484512","TLE_LINE1":"1 50841U 22001AQ  22193.82722783  .00009968  00000-0  64297-3 0  9992","EPHEMERIS_TYPE":"0","OBJECT_TYPE":"PAYLOAD","INCLINATION":"53.2180","CENTER_NAME":"EARTH","GP_ID":"208000449","DECAY_DATE":null,"REV_AT_EPOCH":"2859","APOAPSIS":"541.076"},{"RA_OF_ASC_NODE":"55.8132","MEAN_MOTION_DOT":"0.00006161","ECCENTRICITY":"0.00022940","CLASSIFICATION_TYPE":"U","SEMIMAJOR_AXIS":"6917.840","TLE_LINE2":"2 50842  53.2173  55.8132 0002294  80.3677 279.7575 15.08853056 28591","LAUNCH_DATE":"2022-01-06","PERIOD":"95.437","SITE":"AFETR","ARG_OF_PERICENTER":"80.3677","COUNTRY_CODE":"US","MEAN_ANOMALY":"279.7575","MEAN_MOTION_DDOT":"0.0000000000000","REF_FRAME":"TEME","RCS_SIZE":"LARGE","BSTAR":"0.00040469000000","TIME_SYSTEM":"UTC","NORAD_CAT_ID":"50842","OBJECT_ID":"2022-001AR","INCLINATION":"53.2173","CENTER_NAME":"EARTH","APOAPSIS":"541.292","DECAY_DATE":null,"REV_AT_EPOCH":"2859","GP_ID":"208001201","MEAN_ELEMENT_THEORY":"SGP4","OBJECT_NAME":"STARLINK-3302","FILE":"3512432","EPOCH":"2022-07-12T21:05:23.669088","TLE_LINE1":"1 50842U 22001AR  22193.87874617  .00006161  00000-0  40469-3 0  9999","OBJECT_TYPE":"PAYLOAD","EPHEMERIS_TYPE":"0","PERIAPSIS":"538.119","MEAN_MOTION":"15.08853056","ELEMENT_SET_NO":"999"},{"PERIAPSIS":"538.101","EPOCH":"2022-07-13T00:47:58.215552","TLE_LINE1":"1 50843U 22001AS  22194.03331268  .00002235  00000-0  15846-3 0  9998","EPHEMERIS_TYPE":"0","OBJECT_TYPE":"PAYLOAD","ELEMENT_SET_NO":"999","MEAN_MOTION":"15.08850301","MEAN_ELEMENT_THEORY":"SGP4","OBJECT_NAME":"STARLINK-3325","FILE":"3512632","DECAY_DATE":null,"REV_AT_EPOCH":"2982","APOAPSIS":"541.327","GP_ID":"208007029","INCLINATION":"53.2178","CENTER_NAME":"EARTH","NORAD_CAT_ID":"50843","OBJECT_ID":"2022-001AS","RCS_SIZE":"LARGE","TIME_SYSTEM":"UTC","BSTAR":"0.00015846000000","COUNTRY_CODE":"US","MEAN_ANOMALY":"302.6688","PERIOD":"95.437","SITE":"AFETR","ARG_OF_PERICENTER":"57.4529","MEAN_MOTION_DDOT":"0.0000000000000","REF_FRAME":"TEME","MEAN_MOTION_DOT":"0.00002235","ECCENTRICITY":"0.00023320","RA_OF_ASC_NODE":"55.1228","LAUNCH_DATE":"2022-01-06","SEMIMAJOR_AXIS":"6917.849","CLASSIFICATION_TYPE":"U","TLE_LINE2":"2 50843  53.2178  55.1228 0002332  57.4529 302.6688 15.08850301 29828"},{"INCLINATION":"53.2190","CENTER_NAME":"EARTH","REV_AT_EPOCH":"2860","DECAY_DATE":null,"APOAPSIS":"540.979","GP_ID":"207999700","OBJECT_NAME":"STARLINK-3326","FILE":"3512432","MEAN_ELEMENT_THEORY":"SGP4","PERIAPSIS":"538.400","EPHEMERIS_TYPE":"0","TLE_LINE1":"1 50844U 22001AT  22193.86771585  .00006023  00000-0  39602-3 0  9994","OBJECT_TYPE":"PAYLOAD","EPOCH":"2022-07-12T20:49:30.649440","ELEMENT_SET_NO":"999","MEAN_MOTION":"15.08858141","ECCENTRICITY":"0.00018640","MEAN_MOTION_DOT":"0.00006023","RA_OF_ASC_NODE":"55.8659","LAUNCH_DATE":"2022-01-06","TLE_LINE2":"2 50844  53.2190  55.8659 0001864  62.7435 297.3747 15.08858141 28603","SEMIMAJOR_AXIS":"6917.825","CLASSIFICATION_TYPE":"U","MEAN_ANOMALY":"297.3747","COUNTRY_CODE":"US","SITE":"AFETR","ARG_OF_PERICENTER":"62.7435","PERIOD":"95.436","MEAN_MOTION_DDOT":"0.0000000000000","REF_FRAME":"TEME","RCS_SIZE":"LARGE","TIME_SYSTEM":"UTC","BSTAR":"0.00039602000000","OBJECT_ID":"2022-001AT","NORAD_CAT_ID":"50844"},{"NORAD_CAT_ID":"50845","OBJECT_ID":"2022-001AU","BSTAR":"0.00007981700000","TIME_SYSTEM":"UTC","RCS_SIZE":"LARGE","MEAN_MOTION_DDOT":"0.0000000000000","REF_FRAME":"TEME","PERIOD":"95.437","ARG_OF_PERICENTER":"57.5098","SITE":"AFETR","COUNTRY_CODE":"US","MEAN_ANOMALY":"302.6045","CLASSIFICATION_TYPE":"U","SEMIMAJOR_AXIS":"6917.837","TLE_LINE2":"2 50845  53.2187  55.3603 0001557  57.5098 302.6045 15.08854341 29857","LAUNCH_DATE":"2022-01-06","RA_OF_ASC_NODE":"55.3603","MEAN_MOTION_DOT":"0.00000983","ECCENTRICITY":"0.00015570","MEAN_MOTION":"15.08854341","ELEMENT_SET_NO":"999","EPOCH":"2022-07-12T23:28:28.424064","EPHEMERIS_TYPE":"0","TLE_LINE1":"1 50845U 22001AU  22193.97810676  .00000983  00000-0  79817-4 0  9994","OBJECT_TYPE":"PAYLOAD","PERIAPSIS":"538.624","MEAN_ELEMENT_THEORY":"SGP4","OBJECT_NAME":"STARLINK-3230","FILE":"3512632","GP_ID":"208007030","APOAPSIS":"540.779","DECAY_DATE":null,"REV_AT_EPOCH":"2985","INCLINATION":"53.2187","CENTER_NAME":"EARTH"},{"CENTER_NAME":"EARTH","INCLINATION":"53.2187","APOAPSIS":"541.288","DECAY_DATE":null,"REV_AT_EPOCH":"2991","GP_ID":"208006798","MEAN_ELEMENT_THEORY":"SGP4","OBJECT_NAME":"STARLINK-3308","FILE":"3512632","EPOCH":"2022-07-13T01:30:21.543840","OBJECT_TYPE":"PAYLOAD","TLE_LINE1":"1 50846U 22001AV  22194.06274935  .00004698  00000-0  31288-3 0  9994","EPHEMERIS_TYPE":"0","PERIAPSIS":"538.076","MEAN_MOTION":"15.08860732","ELEMENT_SET_NO":"999","RA_OF_ASC_NODE":"54.9866","MEAN_MOTION_DOT":"0.00004698","ECCENTRICITY":"0.00023210","SEMIMAJOR_AXIS":"6917.817","CLASSIFICATION_TYPE":"U","TLE_LINE2":"2 50846  53.2187  54.9866 0002321  76.1957 283.9293 15.08860732 29919","LAUNCH_DATE":"2022-01-06","PERIOD":"95.436","ARG_OF_PERICENTER":"76.1957","SITE":"AFETR","COUNTRY_CODE":"US","MEAN_ANOMALY":"283.9293","MEAN_MOTION_DDOT":"0.0000000000000","REF_FRAME":"TEME","RCS_SIZE":"LARGE","BSTAR":"0.00031288000000","TIME_SYSTEM":"UTC","NORAD_CAT_ID":"50846","OBJECT_ID":"2022-001AV"},{"MEAN_ELEMENT_THEORY":"SGP4","FILE":"3512624","OBJECT_NAME":"STARLINK-3319","ELEMENT_SET_NO":"999","MEAN_MOTION":"15.08816228","PERIAPSIS":"539.027","EPOCH":"2022-07-13T00:32:07.038816","EPHEMERIS_TYPE":"0","TLE_LINE1":"1 50847U 22001AW  22194.02230369  .00001987  00000-0  14297-3 0  9993","OBJECT_TYPE":"PAYLOAD","CENTER_NAME":"EARTH","INCLINATION":"53.2179","GP_ID":"208006808","DECAY_DATE":null,"REV_AT_EPOCH":"2982","APOAPSIS":"540.609","TIME_SYSTEM":"UTC","BSTAR":"0.00014297000000","RCS_SIZE":"LARGE","NORAD_CAT_ID":"50847","OBJECT_ID":"2022-001AW","LAUNCH_DATE":"2022-01-06","SEMIMAJOR_AXIS":"6917.953","CLASSIFICATION_TYPE":"U","TLE_LINE2":"2 50847  53.2179  55.1558 0001143  85.3055 274.8068 15.08816228 29824","MEAN_MOTION_DOT":"0.00001987","ECCENTRICITY":"0.00011430","RA_OF_ASC_NODE":"55.1558","REF_FRAME":"TEME","MEAN_MOTION_DDOT":"0.0000000000000","COUNTRY_CODE":"US","MEAN_ANOMALY":"274.8068","PERIOD":"95.439","SITE":"AFETR","ARG_OF_PERICENTER":"85.3055"},{"NORAD_CAT_ID":"50848","OBJECT_ID":"2022-001AX","TIME_SYSTEM":"UTC","BSTAR":"0.00031257000000","RCS_SIZE":"LARGE","MEAN_MOTION_DDOT":"0.0000000000000","REF_FRAME":"TEME","COUNTRY_CODE":"US","MEAN_ANOMALY":"302.2813","PERIOD":"95.436","SITE":"AFETR","ARG_OF_PERICENTER":"57.8352","LAUNCH_DATE":"2022-01-06","SEMIMAJOR_AXIS":"6917.814","CLASSIFICATION_TYPE":"U","TLE_LINE2":"2 50848  53.2187  55.8923 0001783  57.8352 302.2813 15.08861568 28607","MEAN_MOTION_DOT":"0.00004693","ECCENTRICITY":"0.00017830","RA_OF_ASC_NODE":"55.8923","ELEMENT_SET_NO":"999","MEAN_MOTION":"15.08861568","PERIAPSIS":"538.446","EPOCH":"2022-07-12T20:38:54.163968","TLE_LINE1":"1 50848U 22001AX  22193.86034912  .00004693  00000-0  31257-3 0  9993","OBJECT_TYPE":"PAYLOAD","EPHEMERIS_TYPE":"0","MEAN_ELEMENT_THEORY":"SGP4","FILE":"3512432","OBJECT_NAME":"STARLINK-3315","GP_ID":"208000200","DECAY_DATE":null,"REV_AT_EPOCH":"2860","APOAPSIS":"540.913","INCLINATION":"53.2187","CENTER_NAME":"EARTH"}];
